[{"OBJECT_NAME":"HAWK-11B","OBJECT_ID":"2024-247C","EPOCH":"2026-03-09T10:44:06.809856","MEAN_MOTION":15.2884707,"ECCENTRICITY":0.00046902,"INCLINATION":45.0161,"RA_OF_ASC_NODE":115.761,"ARG_OF_PERICENTER":333.0326,"MEAN_ANOMALY":27.0314,"EPHEMERIS_TYPE":0,"CLASSIFICATION_TYPE":"U","NORAD_CAT_ID":62379,"ELEMENT_SET_NO":999,"REV_AT_EPOCH":6773,"BSTAR":0.00032841927,"MEAN_MOTION_DOT":9.093e-5,"MEAN_MOTION_DDOT":0},{"OBJECT_NAME":"STARLINK-34614","OBJECT_ID":"2025-161R","EPOCH":"2026-03-09T22:31:21.361152","MEAN_MOTION":15.30204259,"ECCENTRICITY":8.021e-5,"INCLINATION":53.1605,"RA_OF_ASC_NODE":293.3511,"ARG_OF_PERICENTER":104.9906,"MEAN_ANOMALY":255.1183,"EPHEMERIS_TYPE":0,"CLASSIFICATION_TYPE":"U","NORAD_CAT_ID":65030,"ELEMENT_SET_NO":999,"REV_AT_EPOCH":3536,"BSTAR":0.00074378752,"MEAN_MOTION_DOT":0.00021737,"MEAN_MOTION_DDOT":0}]
